{
  "type": "FeatureCollection",
  "features": [
    {
      "type": "Feature",
      "properties": {
        "norad_id": 34963,
        "name": "COSMOS 2251 DEB",
        "group": "cosmos-2251-debris",
        "lat": 29.231263945983972,
        "lon": 37.58700730584432,
        "alt_km": 749.4197349470869,
        "timestamp": "2025-12-20T09:36:02.044718+00:00",
        "meta_object_name": "COSMOS 2251 DEB",
        "meta_object_id": "1993-036AES",
        "meta_epoch": "2025-12-19T10:17:44.598624",
        "meta_mean_motion": 14.51142917,
        "meta_eccentricity": 0.0042291,
        "meta_inclination": 74.1714,
        "meta_ra_of_asc_node": 30.2633,
        "meta_arg_of_pericenter": 225.4927,
        "meta_mean_anomaly": 134.2777,
        "meta_ephemeris_type": 0,
        "meta_classification_type": "U",
        "meta_norad_cat_id": 34963,
        "meta_element_set_no": 999,
        "meta_rev_at_epoch": 86898,
        "meta_bstar": 0.00083703,
        "meta_mean_motion_dot": 3.333e-05,
        "meta_mean_motion_ddot": 0,
        "tle_line1": "1 34963U 93036AES 25353.42898841  .00003333  00000+0  83703-3 0  9993",
        "tle_line2": "2 34963  74.1714  30.2633 0042291 225.4927 134.2777 14.51142917868982"
      },
      "geometry": {
        "type": "Point",
        "coordinates": [
          37.58700730584432,
          29.231263945983972
        ]
      }
    },
    {
      "type": "Feature",
      "properties": {
        "norad_id": 34964,
        "name": "COSMOS 2251 DEB",
        "group": "cosmos-2251-debris",
        "lat": 72.87874297141052,
        "lon": 85.56838988413558,
        "alt_km": 895.1558253256426,
        "timestamp": "2025-12-20T09:36:02.044729+00:00",
        "meta_object_name": "COSMOS 2251 DEB",
        "meta_object_id": "1993-036AET",
        "meta_epoch": "2025-12-18T07:25:04.519776",
        "meta_mean_motion": 14.00628567,
        "meta_eccentricity": 0.02123167,
        "meta_inclination": 73.9712,
        "meta_ra_of_asc_node": 338.1457,
        "meta_arg_of_pericenter": 195.4091,
        "meta_mean_anomaly": 164.0515,
        "meta_ephemeris_type": 0,
        "meta_classification_type": "U",
        "meta_norad_cat_id": 34964,
        "meta_element_set_no": 999,
        "meta_rev_at_epoch": 84556,
        "meta_bstar": 0.00089791859,
        "meta_mean_motion_dot": 1.6e-05,
        "meta_mean_motion_ddot": 0,
        "tle_line1": "1 34964U 93036AET 25352.30908009  .00001600  00000+0  89792-3 0  9997",
        "tle_line2": "2 34964  73.9712 338.1457 0212316 195.4091 164.0515 14.00628567845561"
      },
      "geometry": {
        "type": "Point",
        "coordinates": [
          85.56838988413558,
          72.87874297141052
        ]
      }
    },
    {
      "type": "Feature",
      "properties": {
        "norad_id": 34965,
        "name": "COSMOS 2251 DEB",
        "group": "cosmos-2251-debris",
        "lat": 50.511171952770184,
        "lon": 134.43303513492535,
        "alt_km": 743.4801253325768,
        "timestamp": "2025-12-20T09:36:02.044739+00:00",
        "meta_object_name": "COSMOS 2251 DEB",
        "meta_object_id": "1993-036AEU",
        "meta_epoch": "2025-12-19T15:07:25.013568",
        "meta_mean_motion": 14.48723509,
        "meta_eccentricity": 0.0026426,
        "meta_inclination": 74.0517,
        "meta_ra_of_asc_node": 115.568,
        "meta_arg_of_pericenter": 241.9243,
        "meta_mean_anomaly": 117.9244,
        "meta_ephemeris_type": 0,
        "meta_classification_type": "U",
        "meta_norad_cat_id": 34965,
        "meta_element_set_no": 999,
        "meta_rev_at_epoch": 87213,
        "meta_bstar": 0.0002461,
        "meta_mean_motion_dot": 9.04e-06,
        "meta_mean_motion_ddot": 0,
        "tle_line1": "1 34965U 93036AEU 25353.63015062  .00000904  00000+0  24610-3 0  9997",
        "tle_line2": "2 34965  74.0517 115.5680 0026426 241.9243 117.9244 14.48723509872136"
      },
      "geometry": {
        "type": "Point",
        "coordinates": [
          134.43303513492535,
          50.511171952770184
        ]
      }
    },
    {
      "type": "Feature",
      "properties": {
        "norad_id": 34967,
        "name": "COSMOS 2251 DEB",
        "group": "cosmos-2251-debris",
        "lat": -21.590278053919082,
        "lon": 66.09630326717006,
        "alt_km": 776.2430497063106,
        "timestamp": "2025-12-20T09:36:02.044748+00:00",
        "meta_object_name": "COSMOS 2251 DEB",
        "meta_object_id": "1993-036AEW",
        "meta_epoch": "2025-12-13T00:27:20.673792",
        "meta_mean_motion": 14.44269018,
        "meta_eccentricity": 0.00380101,
        "meta_inclination": 73.9933,
        "meta_ra_of_asc_node": 253.3374,
        "meta_arg_of_pericenter": 39.5345,
        "meta_mean_anomaly": 320.8573,
        "meta_ephemeris_type": 0,
        "meta_classification_type": "U",
        "meta_norad_cat_id": 34967,
        "meta_element_set_no": 999,
        "meta_rev_at_epoch": 64961,
        "meta_bstar": 0.0011451852,
        "meta_mean_motion_dot": 3.946e-05,
        "meta_mean_motion_ddot": 0,
        "tle_line1": "1 34967U 93036AEW 25347.01898928  .00003946  00000+0  11452-2 0  9992",
        "tle_line2": "2 34967  73.9933 253.3374 0038010  39.5345 320.8573 14.44269018649616"
      },
      "geometry": {
        "type": "Point",
        "coordinates": [
          66.09630326717006,
          -21.590278053919082
        ]
      }
    },
    {
      "type": "Feature",
      "properties": {
        "norad_id": 34968,
        "name": "COSMOS 2251 DEB",
        "group": "cosmos-2251-debris",
        "lat": 60.390739380639474,
        "lon": 22.226397618522643,
        "alt_km": 723.1521302279498,
        "timestamp": "2025-12-20T09:36:02.044758+00:00",
        "meta_object_name": "COSMOS 2251 DEB",
        "meta_object_id": "1993-036AEX",
        "meta_epoch": "2025-12-20T02:29:49.126848",
        "meta_mean_motion": 14.59417792,
        "meta_eccentricity": 0.0086985,
        "meta_inclination": 74.0382,
        "meta_ra_of_asc_node": 233.0313,
        "meta_arg_of_pericenter": 351.5589,
        "meta_mean_anomaly": 8.4106,
        "meta_ephemeris_type": 0,
        "meta_classification_type": "U",
        "meta_norad_cat_id": 34968,
        "meta_element_set_no": 999,
        "meta_rev_at_epoch": 88585,
        "meta_bstar": 9.6085e-05,
        "meta_mean_motion_dot": 4.47e-06,
        "meta_mean_motion_ddot": 0,
        "tle_line1": "1 34968U 93036AEX 25354.10404082  .00000447  00000+0  96085-4 0  9995",
        "tle_line2": "2 34968  74.0382 233.0313 0086985 351.5589   8.4106 14.59417792885855"
      },
      "geometry": {
        "type": "Point",
        "coordinates": [
          22.226397618522643,
          60.390739380639474
        ]
      }
    },
    {
      "type": "Feature",
      "properties": {
        "norad_id": 34969,
        "name": "COSMOS 2251 DEB",
        "group": "cosmos-2251-debris",
        "lat": 2.3105366224871933,
        "lon": -171.51695148507972,
        "alt_km": 744.4372615380544,
        "timestamp": "2025-12-20T09:36:02.044769+00:00",
        "meta_object_name": "COSMOS 2251 DEB",
        "meta_object_id": "1993-036AEY",
        "meta_epoch": "2025-12-19T09:18:38.426400",
        "meta_mean_motion": 14.32265352,
        "meta_eccentricity": 0.0073239,
        "meta_inclination": 74.0141,
        "meta_ra_of_asc_node": 10.9944,
        "meta_arg_of_pericenter": 142.5473,
        "meta_mean_anomaly": 218.0814,
        "meta_ephemeris_type": 0,
        "meta_classification_type": "U",
        "meta_norad_cat_id": 34969,
        "meta_element_set_no": 999,
        "meta_rev_at_epoch": 65232,
        "meta_bstar": 0.00018668,
        "meta_mean_motion_dot": 4.93e-06,
        "meta_mean_motion_ddot": 0,
        "tle_line1": "1 34969U 93036AEY 25353.38794475  .00000493  00000+0  18668-3 0  9994",
        "tle_line2": "2 34969  74.0141  10.9944 0073239 142.5473 218.0814 14.32265352652322"
      },
      "geometry": {
        "type": "Point",
        "coordinates": [
          -171.51695148507972,
          2.3105366224871933
        ]
      }
    },
    {
      "type": "Feature",
      "properties": {
        "norad_id": 34971,
        "name": "COSMOS 2251 DEB",
        "group": "cosmos-2251-debris",
        "lat": 66.07077962585568,
        "lon": -49.20169463800166,
        "alt_km": 677.2601402951032,
        "timestamp": "2025-12-20T09:36:02.044806+00:00",
        "meta_object_name": "COSMOS 2251 DEB",
        "meta_object_id": "1993-036AFA",
        "meta_epoch": "2025-12-18T11:38:13.277760",
        "meta_mean_motion": 14.55642375,
        "meta_eccentricity": 0.00693978,
        "meta_inclination": 73.9787,
        "meta_ra_of_asc_node": 274.0839,
        "meta_arg_of_pericenter": 138.3039,
        "meta_mean_anomaly": 342.538,
        "meta_ephemeris_type": 0,
        "meta_classification_type": "U",
        "meta_norad_cat_id": 34971,
        "meta_element_set_no": 999,
        "meta_rev_at_epoch": 66256,
        "meta_bstar": 0.00012982435,
        "meta_mean_motion_dot": 5.55e-06,
        "meta_mean_motion_ddot": 0,
        "tle_line1": "1 34971U 93036AFA 25352.48487590  .00000555  00000+0  12982-3 0  9996",
        "tle_line2": "2 34971  73.9787 274.0839 0069397 138.3039 342.5380 14.55642375662563"
      },
      "geometry": {
        "type": "Point",
        "coordinates": [
          -49.20169463800166,
          66.07077962585568
        ]
      }
    }
  ]
}